IRIDIUM 106             
1 41917U 17003A   24322.04006996  .00000252  00000+0  82897-4 0  9996
2 41917  86.3951 329.7222 0002274  82.0100 278.1354 14.34215733410489
IRIDIUM 103             
1 41918U 17003B   24321.74831155  .00000245  00000+0  80581-4 0  9996
2 41918  86.3950 329.7456 0002915  87.4417 272.7112 14.34216396410477
IRIDIUM 109             
1 41919U 17003C   24322.73142830  .00000196  00000+0  62958-4 0  9995
2 41919  86.3952 329.3845 0002450  96.5134 263.6341 14.34218161410597
IRIDIUM 102             
1 41920U 17003D   24322.76946491  .00000165  00000+0  52016-4 0  9995
2 41920  86.3949 329.3042 0002179  92.3164 267.8281 14.34216790410662
IRIDIUM 105             
1 41921U 17003E   24322.67045380  .00000599  00000+0  20680-3 0  9995
2 41921  86.3931 297.7646 0002392  82.7433 277.4034 14.34222780412505
IRIDIUM 104             
1 41922U 17003F   24322.08447338  .00000228  00000+0  74380-4 0  9996
2 41922  86.3952 329.6246 0002676 102.1576 257.9920 14.34216196410554
IRIDIUM 114             
1 41923U 17003G   24322.57918535  .00000217  00000+0  70399-4 0  9997
2 41923  86.3951 329.4030 0002488  88.8428 271.3053 14.34214790410623
IRIDIUM 108             
1 41924U 17003H   24322.46794532  .00000515  00000+0  17697-3 0  9997
2 41924  86.3924 297.7643 0002155  81.6075 278.5365 14.34217663412462
